STARLINK-3358           
1 51109U 22005F   26068.92720374  .00000126  00000+0  25980-4 0  9997
2 51109  53.2177 288.0056 0001248  84.5569 275.5566 15.08839830228681
STARLINK-6085           
1 57115U 23090Q   26068.53746065  .00027564  00000+0  15302-2 0  9997
2 57115  42.9983 264.1938 0019382 205.4773 154.5119 15.13089153150525
